OBJECT_NAME,OBJECT_ID,EPOCH,MEAN_MOTION,ECCENTRICITY,INCLINATION,RA_OF_ASC_NODE,ARG_OF_PERICENTER,MEAN_ANOMALY,EPHEMERIS_TYPE,CLASSIFICATION_TYPE,NORAD_CAT_ID,ELEMENT_SET_NO,REV_AT_EPOCH,BSTAR,MEAN_MOTION_DOT,MEAN_MOTION_DDOT
ONEWEB-0410,2022-012A,2026-06-05T07:05:13.319520,13.17647764,.00031632,87.9153,8.2217,86.0938,274.0555,0,U,51622,999,21213,.35059311E-4,.27E-6,0
ONEWEB-0411,2022-012B,2026-06-05T09:45:34.115040,13.10376395,.00013595,87.8859,38.6111,99.1848,260.9434,0,U,51623,999,20774,-.86979594E-3,-.291E-5,0
ONEWEB-0415,2022-012C,2026-06-04T17:11:12.073344,13.10378067,.00016927,87.8851,38.7497,94.6857,265.4464,0,U,51624,999,20765,-.55422137E-3,-.181E-5,0
ONEWEB-0416,2022-012D,2026-06-05T09:57:33.778656,13.10388552,.00019158,87.8845,38.6281,95.6626,264.4720,0,U,51625,999,20778,.75692642E-3,.277E-5,0
ONEWEB-0422,2022-012E,2026-06-05T07:19:48.773568,13.17650142,.00013,87.9147,8.2212,71.6586,288.4686,0,U,51626,999,21224,-.22602806E-3,-.75E-6,0
ONEWEB-0423,2022-012F,2026-06-05T07:10:06.511008,13.17649311,.00019203,87.9144,8.2286,84.4953,275.6397,0,U,51627,999,21213,.9029129E-5,.16E-6,0
ONEWEB-0425,2022-012G,2026-06-05T10:11:54.752928,13.10375469,.0002201,87.8838,38.6097,80.6171,279.5205,0,U,51628,999,20778,.15836811E-2,.566E-5,0
ONEWEB-0428,2022-012H,2026-06-05T09:43:10.772256,13.10376860,.00017334,87.8851,38.6221,78.8768,281.2554,0,U,51629,999,20774,-.1039506E-2,-.35E-5,0
ONEWEB-0431,2022-012J,2026-06-05T08:59:57.992064,13.10369633,.00012748,87.8842,38.6187,94.2225,265.9048,0,U,51630,999,20779,-.29451154E-3,-.9E-6,0
ONEWEB-0434,2022-012K,2026-06-05T10:16:52.613472,13.10374573,.0002375,87.8856,38.6315,82.1724,277.9673,0,U,51631,999,20778,.17637758E-2,.628E-5,0
ONEWEB-0435,2022-012L,2026-06-05T23:18:17.157024,13.10380059,.0001675,87.8856,38.5121,88.3819,271.7500,0,U,51632,999,20784,-.58742E-2,-.2038E-4,0
ONEWEB-0436,2022-012M,2026-06-05T12:25:58.584288,13.17650835,.00016212,87.9152,8.1663,85.3222,274.8094,0,U,51633,999,21214,-.90240784E-4,-.22E-6,0
ONEWEB-0438,2022-012N,2026-06-04T17:35:07.770912,13.10376671,.0002003,87.8849,38.7624,82.0585,278.0769,0,U,51634,999,20771,.18476E-2,.658E-5,0
ONEWEB-0439,2022-012P,2026-06-05T10:09:30.139200,13.10375722,.00018147,87.8846,38.6108,79.9173,280.2159,0,U,51635,999,20778,.14285145E-2,.511E-5,0
ONEWEB-0442,2022-012Q,2026-06-05T12:15:03.187584,13.17648482,.00024073,87.9143,8.2013,88.6072,271.5335,0,U,51636,999,21213,-.4897572E-5,.11E-6,0
ONEWEB-0443,2022-012R,2026-06-05T07:14:56.713920,13.17648530,.00019419,87.9141,8.2440,76.6171,283.5177,0,U,51637,999,21215,.51371637E-4,.33E-6,0
ONEWEB-0444,2022-012S,2026-06-05T09:55:09.024960,13.10377926,.00018723,87.8855,38.6155,67.7188,292.4138,0,U,51638,999,20779,.45113811E-3,.17E-5,0
ONEWEB-0446,2022-012U,2026-06-05T09:52:45.001344,13.10377287,.00017662,87.8852,38.6285,87.6807,272.4522,0,U,51640,999,20778,-.66435032E-4,-.11E-6,0
ONEWEB-0448,2022-012V,2026-06-05T09:59:56.647104,13.10375874,.0001811,87.8846,38.6250,77.5337,282.5993,0,U,51641,999,20775,.80936117E-3,.295E-5,0
ONEWEB-0449,2022-012W,2026-06-05T10:07:06.443904,13.10380834,.00021053,87.8880,38.6078,70.1984,289.9370,0,U,51642,999,20776,.29990886E-2,.106E-4,0
ONEWEB-0451,2022-012X,2026-06-05T12:21:08.150688,13.17650039,.00020785,87.9153,8.1639,84.1733,275.9636,0,U,51643,999,21212,.18343883E-3,.84E-6,0
ONEWEB-0452,2022-012Y,2026-06-05T12:18:41.427936,13.17650556,.0001992,87.9142,8.2024,77.0071,283.1283,0,U,51644,999,21213,.58102455E-4,.35E-6,0
ONEWEB-0456,2022-012AA,2026-06-05T10:21:25.806816,13.10376106,.00017198,87.8848,38.5941,74.8740,285.2578,0,U,51646,999,20780,.72732708E-3,.267E-5,0
ONEWEB-0457,2022-012AB,2026-06-05T09:47:45.388608,13.10375931,.0001955,87.8849,38.6171,92.1915,267.9437,0,U,51647,999,20780,-.45666335E-3,-.147E-5,0
ONEWEB-0458,2022-012AC,2026-06-05T10:19:06.301056,13.10388929,.00021233,87.8853,38.6001,76.4219,283.7145,0,U,51648,999,20776,.41016532E-2,.1445E-4,0
ONEWEB-0461,2022-012AD,2026-06-05T16:28:57.980352,13.17648130,.00018711,87.9150,8.1444,91.3353,268.7993,0,U,51649,999,21237,.989624E-6,.13E-6,0
ONEWEB-0463,2022-012AE,2026-06-05T12:23:33.509184,13.17650733,.00019157,87.9143,8.2015,93.3959,266.7392,0,U,51650,999,21213,.28104767E-3,.122E-5,0
ONEWEB-0464,2022-012AF,2026-06-05T01:04:30.728640,13.10375806,.00017644,87.8847,38.6983,76.8785,283.2540,0,U,51651,999,20773,.21916779E-2,.778E-5,0
ONEWEB-0468,2022-012AG,2026-06-05T23:13:32.207232,13.10370561,.0001825,87.8843,38.5088,66.6634,293.4686,0,U,51652,999,20783,.15503E-2,.554E-5,0
